[
    {
        "Altitude(m)": 707095.7003266222,
        "Argument of Periapsis(deg)": 0.0022780242373254137,
        "Eccentricity": 0.0,
        "Inclination(deg)": 45.0,
        "Latitude(deg)": 44.20224696851539,
        "Longitude(deg)": -65.44026043298149,
        "Mean Anomaly(deg)": -259.5115566705038,
        "RAAN(deg)": 289.9978496117084,
        "Satellite Name": "Constellation 1 1282",
        "Satellite Number": 1282,
        "Semi-Major Axis(m)": 7083131.272910544,
        "Time(s)": 38
    },
    {
        "Altitude(m)": 707093.2463536444,
        "Argument of Periapsis(deg)": 0.002337972243570819,
        "Eccentricity": 0.0,
        "Inclination(deg)": 45.0,
        "Latitude(deg)": 44.19130817295857,
        "Longitude(deg)": -65.36125626625596,
        "Mean Anomaly(deg)": -259.45085553025393,
        "RAAN(deg)": 289.99779302254285,
        "Satellite Name": "Constellation 1 1282",
        "Satellite Number": 1282,
        "Semi-Major Axis(m)": 7083131.272910544,
        "Time(s)": 39
    },
    {
        "Altitude(m)": 707090.779015024,
        "Argument of Periapsis(deg)": 0.0023979202498162246,
        "Eccentricity": 0.0,
        "Inclination(deg)": 45.0,
        "Latitude(deg)": 44.1803089366961,
        "Longitude(deg)": -65.28228290288665,
        "Mean Anomaly(deg)": -259.39015439000406,
        "RAAN(deg)": 289.9977364333772,
        "Satellite Name": "Constellation 1 1282",
        "Satellite Number": 1282,
        "Semi-Major Axis(m)": 7083131.272910544,
        "Time(s)": 40
    },
    {
        "Altitude(m)": 707088.2983252958,
        "Argument of Periapsis(deg)": 0.00245786825606163,
        "Eccentricity": 0.0,
        "Inclination(deg)": 45.0,
        "Latitude(deg)": 44.169249304954896,
        "Longitude(deg)": -65.20334048909746,
        "Mean Anomaly(deg)": -259.3294532497542,
        "RAAN(deg)": 289.9976798442117,
        "Satellite Name": "Constellation 1 1282",
        "Satellite Number": 1282,
        "Semi-Major Axis(m)": 7083131.272910544,
        "Time(s)": 41
    },
    {
        "Altitude(m)": 707085.8042990791,
        "Argument of Periapsis(deg)": 0.002517816262307036,
        "Eccentricity": 0.0,
        "Inclination(deg)": 45.0,
        "Latitude(deg)": 44.158129323167465,
        "Longitude(deg)": -65.12442917062191,
        "Mean Anomaly(deg)": -259.26875210950425,
        "RAAN(deg)": 289.9976232550461,
        "Satellite Name": "Constellation 1 1282",
        "Satellite Number": 1282,
        "Semi-Major Axis(m)": 7083131.272910544,
        "Time(s)": 42
    },
    {
        "Altitude(m)": 707083.2969510853,
        "Argument of Periapsis(deg)": 0.0025777642685524413,
        "Eccentricity": 0.0,
        "Inclination(deg)": 45.0,
        "Latitude(deg)": 44.14694903697105,
        "Longitude(deg)": -65.04554909270045,
        "Mean Anomaly(deg)": -259.2080509692543,
        "RAAN(deg)": 289.9975666658805,
        "Satellite Name": "Constellation 1 1282",
        "Satellite Number": 1282,
        "Semi-Major Axis(m)": 7083131.272910544,
        "Time(s)": 43
    },
    {
        "Altitude(m)": 707080.7762960877,
        "Argument of Periapsis(deg)": 0.002637712274797847,
        "Eccentricity": 0.0,
        "Inclination(deg)": 45.0,
        "Latitude(deg)": 44.13570849220674,
        "Longitude(deg)": -64.96670056817626,
        "Mean Anomaly(deg)": -259.14734982900444,
        "RAAN(deg)": 289.997510076715,
        "Satellite Name": "Constellation 1 1282",
        "Satellite Number": 1282,
        "Semi-Major Axis(m)": 7083131.272910544,
        "Time(s)": 44
    },
    {
        "Altitude(m)": 707078.2423489497,
        "Argument of Periapsis(deg)": 0.0026976602810432526,
        "Eccentricity": 0.0,
        "Inclination(deg)": 45.0,
        "Latitude(deg)": 44.124407734918975,
        "Longitude(deg)": -64.8878834051068,
        "Mean Anomaly(deg)": -259.08664868875456,
        "RAAN(deg)": 289.9974534875494,
        "Satellite Name": "Constellation 1 1282",
        "Satellite Number": 1282,
        "Semi-Major Axis(m)": 7083131.272910544,
        "Time(s)": 45
    },
    {
        "Altitude(m)": 707075.6951246099,
        "Argument of Periapsis(deg)": 0.0027576082872886585,
        "Eccentricity": 0.0,
        "Inclination(deg)": 45.0,
        "Latitude(deg)": 44.11304681135408,
        "Longitude(deg)": -64.80909791534224,
        "Mean Anomaly(deg)": -259.02594754850463,
        "RAAN(deg)": 289.99739689838384,
        "Satellite Name": "Constellation 1 1282",
        "Satellite Number": 1282,
        "Semi-Major Axis(m)": 7083131.272910544,
        "Time(s)": 46
    },
    {
        "Altitude(m)": 707073.1346380854,
        "Argument of Periapsis(deg)": 0.0028175562935340644,
        "Eccentricity": 0.0,
        "Inclination(deg)": 45.0,
        "Latitude(deg)": 44.101625767959916,
        "Longitude(deg)": -64.73034424213711,
        "Mean Anomaly(deg)": -258.96524640825476,
        "RAAN(deg)": 289.99734030921826,
        "Satellite Name": "Constellation 1 1282",
        "Satellite Number": 1282,
        "Semi-Major Axis(m)": 7083131.272910544,
        "Time(s)": 47
    },
    {
        "Altitude(m)": 707070.5609044746,
        "Argument of Periapsis(deg)": 0.00287750429977947,
        "Eccentricity": 0.0,
        "Inclination(deg)": 45.0,
        "Latitude(deg)": 44.09014465138483,
        "Longitude(deg)": -64.65162252824598,
        "Mean Anomaly(deg)": -258.9045452680048,
        "RAAN(deg)": 289.9972837200527,
        "Satellite Name": "Constellation 1 1282",
        "Satellite Number": 1282,
        "Semi-Major Axis(m)": 7083131.272910544,
        "Time(s)": 48
    },
    {
        "Altitude(m)": 707067.9739389558,
        "Argument of Periapsis(deg)": 0.002937452306024875,
        "Eccentricity": 0.0,
        "Inclination(deg)": 45.0,
        "Latitude(deg)": 44.07860350847682,
        "Longitude(deg)": -64.57293291592134,
        "Mean Anomaly(deg)": -258.8438441277549,
        "RAAN(deg)": 289.99722713088715,
        "Satellite Name": "Constellation 1 1282",
        "Satellite Number": 1282,
        "Semi-Major Axis(m)": 7083131.272910544,
        "Time(s)": 49
    },
    {
        "Altitude(m)": 707065.3737567798,
        "Argument of Periapsis(deg)": 0.0029974003122702807,
        "Eccentricity": 0.0,
        "Inclination(deg)": 45.0,
        "Latitude(deg)": 44.0670023862828,
        "Longitude(deg)": -64.49427554691268,
        "Mean Anomaly(deg)": -258.7831429875051,
        "RAAN(deg)": 289.9971705417216,
        "Satellite Name": "Constellation 1 1282",
        "Satellite Number": 1282,
        "Semi-Major Axis(m)": 7083131.272910544,
        "Time(s)": 50
    },
    {
        "Altitude(m)": 707062.7603732848,
        "Argument of Periapsis(deg)": 0.0030573483185156866,
        "Eccentricity": 0.0,
        "Inclination(deg)": 45.0,
        "Latitude(deg)": 44.05534133204759,
        "Longitude(deg)": -64.41565056246455,
        "Mean Anomaly(deg)": -258.7224418472552,
        "RAAN(deg)": 289.997113952556,
        "Satellite Name": "Constellation 1 1282",
        "Satellite Number": 1282,
        "Semi-Major Axis(m)": 7083131.272910544,
        "Time(s)": 51
    },
    {
        "Altitude(m)": 707060.1338038868,
        "Argument of Periapsis(deg)": 0.003117296324761092,
        "Eccentricity": 0.0,
        "Inclination(deg)": 45.0,
        "Latitude(deg)": 44.04362039321303,
        "Longitude(deg)": -64.33705827141222,
        "Mean Anomaly(deg)": -258.6617407070053,
        "RAAN(deg)": 289.9970573633904,
        "Satellite Name": "Constellation 1 1282",
        "Satellite Number": 1282,
        "Semi-Major Axis(m)": 7083131.272910544,
        "Time(s)": 52
    },
    {
        "Altitude(m)": 707057.4940640721,
        "Argument of Periapsis(deg)": 0.0031772443310064975,
        "Eccentricity": 0.0,
        "Inclination(deg)": 45.0,
        "Latitude(deg)": 44.031839617417575,
        "Longitude(deg)": -64.25849847779308,
        "Mean Anomaly(deg)": -258.6010395667554,
        "RAAN(deg)": 289.99700077422483,
        "Satellite Name": "Constellation 1 1282",
        "Satellite Number": 1282,
        "Semi-Major Axis(m)": 7083131.272910544,
        "Time(s)": 53
    },
    {
        "Altitude(m)": 707054.8411694171,
        "Argument of Periapsis(deg)": 0.0032371923372519038,
        "Eccentricity": 0.0,
        "Inclination(deg)": 45.0,
        "Latitude(deg)": 44.019999052494754,
        "Longitude(deg)": -64.17997148942604,
        "Mean Anomaly(deg)": -258.54033842650546,
        "RAAN(deg)": 289.9969441850593,
        "Satellite Name": "Constellation 1 1282",
        "Satellite Number": 1282,
        "Semi-Major Axis(m)": 7083131.272910544,
        "Time(s)": 54
    },
    {
        "Altitude(m)": 707052.1751355672,
        "Argument of Periapsis(deg)": 0.0032971403434973088,
        "Eccentricity": 0.0,
        "Inclination(deg)": 45.0,
        "Latitude(deg)": 44.00809874647266,
        "Longitude(deg)": -64.10147744552245,
        "Mean Anomaly(deg)": -258.4796372862556,
        "RAAN(deg)": 289.9968875958937,
        "Satellite Name": "Constellation 1 1282",
        "Satellite Number": 1282,
        "Semi-Major Axis(m)": 7083131.272910544,
        "Time(s)": 55
    },
    {
        "Altitude(m)": 707049.4959782527,
        "Argument of Periapsis(deg)": 0.0033570883497427146,
        "Eccentricity": 0.0,
        "Inclination(deg)": 45.0,
        "Latitude(deg)": 43.9961387475732,
        "Longitude(deg)": -64.02301648478246,
        "Mean Anomaly(deg)": -258.41893614600565,
        "RAAN(deg)": 289.9968310067281,
        "Satellite Name": "Constellation 1 1282",
        "Satellite Number": 1282,
        "Semi-Major Axis(m)": 7083131.272910544,
        "Time(s)": 56
    }
]